NORAD_CAT_ID,OBJECT_NAME,OBJECT_TYPE,EPOCH,MEAN_MOTION,ECCENTRICITY,INCLINATION,RA_OF_ASC_NODE,ARG_OF_PERICENTER,MEAN_ANOMALY,BSTAR,MEAN_MOTION_DOT,MEAN_MOTION_DDOT,TLE_LINE0,TLE_LINE1,TLE_LINE2,SEMIMAJOR_AXIS,PERIOD,APOGEE,PERIGEE,DECAYED
53030.0,STARLINK-4160,PAYLOAD,2022-11-15 20:16:33,15.08837664,0.000125,53.2187,115.3093,73.0551,287.0578,-8.834399999999999e-05,-1.693e-05,0.0,0 STARLINK-4160,1 53030U 22076AW  22319.84483249 -.00001693  00000-0 -88344-4 0  9999,2 53030  53.2187 115.3093 0001250  73.0551 287.0578 15.08837664 20344,6917.888000000001,95.438,540.617,538.888,0.0
53030.0,STARLINK-4160,PAYLOAD,2022-11-16 16:56:33,15.088378699999998,0.0001204,53.2185,111.4439,67.2463,292.8656,5.5802e-05,6e-06,0.0,0 STARLINK-4160,1 53030U 22076AW  22320.70594751  .00000600  00000-0  55802-4 0  9995,2 53030  53.2185 111.4439 0001204  67.2463 292.8656 15.08837870 20945,6917.887,95.438,540.585,538.919,0.0
53030.0,STARLINK-4160,PAYLOAD,2022-11-17 10:25:49,15.08845216,0.0001219,53.2184,108.173,60.2109,299.9004,-0.0002813,-4.763e-05,0.0,0 STARLINK-4160,1 53030U 22076AW  22321.43459673 -.00004763  00000-0 -28130-3 0  9998,2 53030  53.2184 108.1730 0001219  60.2109 299.9004 15.08845216 21058,6917.864000000001,95.437,540.573,538.886,0.0
53030.0,STARLINK-4160,PAYLOAD,2022-11-17 15:12:01,15.08717364,6.09e-05,53.2185,107.2814,89.7221,270.3841,0.0014917,0.00023452,0.0,0 STARLINK-4160,1 53030U 22076AW  22321.63334546  .00023452  00000-0  14917-2 0  9992,2 53030  53.2185 107.2814 0000609  89.7221 270.3841 15.08717364 20610,6918.255,95.445,540.5419999999998,539.6990000000002,0.0
53030.0,STARLINK-4160,PAYLOAD,2022-11-18 08:41:12,15.08839094,0.0001304,53.2192,104.0098,64.0828,296.0298,2.5175e-05,1.13e-06,0.0,0 STARLINK-4160,1 53030U 22076AW  22322.36195314  .00000113  00000-0  25175-4 0  9990,2 53030  53.2192 104.0098 0001304  64.0828 296.0298 15.08839094 20727,6917.8830000000025,95.438,540.65,538.846,0.0
53030.0,STARLINK-4160,PAYLOAD,2022-11-19 02:10:27,15.08834896,0.0001382,53.2194,100.7386,65.2491,294.8644,-2.1174e-05,-6.25e-06,0.0,0 STARLINK-4160,1 53030U 22076AW  22323.09059755 -.00000625  00000-0 -21174-4 0  9994,2 53030  53.2194 100.7386 0001382  65.2491 294.8644 15.08834896 21308,6917.896,95.438,540.717,538.805,0.0
53030.0,STARLINK-4160,PAYLOAD,2022-11-20 13:08:55,15.08842356,7.929999999999999e-05,53.2196,94.1956,72.1913,287.9165,0.00013763,1.904e-05,0.0,0 STARLINK-4160,1 53030U 22076AW  22324.54786576  .00001904  00000-0  13763-3 0  9996,2 53030  53.2196  94.1956 0000793  72.1913 287.9165 15.08842356 21525,6917.873000000001,95.437,540.2869999999998,539.19,0.0
53030.0,STARLINK-4160,PAYLOAD,2022-11-20 17:55:05,15.08842861,0.0001194,53.2192,93.3056,71.6491,288.4631,-3.012e-06,-3.36e-06,0.0,0 STARLINK-4160,1 53030U 22076AW  22324.74659039 -.00000336  00000-0 -30120-5 0  9999,2 53030  53.2192  93.3056 0001194  71.6491 288.4631 15.08842861 21080,6917.871999999999,95.437,540.563,538.911,0.0
53030.0,STARLINK-4160,PAYLOAD,2022-11-21 11:24:20,15.08836977,0.0001254,53.2198,90.0339,68.1769,291.9357,-1.6165e-06,-3.14e-06,0.0,0 STARLINK-4160,1 53030U 22076AW  22325.47523360 -.00000314  00000-0 -16165-5 0  9996,2 53030  53.2198  90.0339 0001254  68.1769 291.9357 15.08836977 21197,6917.89,95.438,540.622,538.887,0.0
53030.0,STARLINK-4160,PAYLOAD,2022-11-21 17:45:52,15.08842893,0.0001408,53.2199,88.846,64.9542,295.1596,-2.5838e-05,-6.99e-06,0.0,0 STARLINK-4160,1 53030U 22076AW  22325.74019110 -.00000699  00000-0 -25838-4 0  9991,2 53030  53.2199  88.8460 0001408  64.9542 295.1596 15.08842893 21704,6917.871999999999,95.437,540.711,538.763,0.0
53030.0,STARLINK-4160,PAYLOAD,2022-11-22 01:42:47,15.08877584,0.0001291999999999,53.2199,87.3587,60.2243,299.8878,-0.00042755,-7.093e-05,0.0,0 STARLINK-4160,1 53030U 22076AW  22326.07138344 -.00007093  00000-0 -42755-3 0  9990,2 53030  53.2199  87.3587 0001292  60.2243 299.8878 15.08877584 21750,6917.766,95.435,540.524,538.737,0.0
53030.0,STARLINK-4160,PAYLOAD,2022-11-22 14:25:53,15.08838113,0.0001419,53.2199,84.9802,65.8555,294.2586,1.0650999999999997e-05,-1.18e-06,0.0,0 STARLINK-4160,1 53030U 22076AW  22326.60130990 -.00000118  00000-0  10651-4 0  9999,2 53030  53.2199  84.9802 0001419  65.8555 294.2586 15.08838113 21830,6917.886,95.438,540.7330000000002,538.77,0.0
53030.0,STARLINK-4160,PAYLOAD,2022-11-22 19:12:02,15.08837042,0.0001381,53.2197,84.0879,65.1408,294.9728,-3.7011e-06,-3.47e-06,0.0,0 STARLINK-4160,1 53030U 22076AW  22326.80003096 -.00000347  00000-0 -37011-5 0  9992,2 53030  53.2197  84.0879 0001381  65.1408 294.9728 15.08837042 21397,6917.889,95.438,540.71,538.799,0.0
53030.0,STARLINK-4160,PAYLOAD,2022-11-23 07:55:07,15.08832985,0.0001412,53.2199,81.7087,67.5194,292.5948,1.4448e-05,-5.8e-07,0.0,0 STARLINK-4160,1 53030U 22076AW  22327.32995354 -.00000058  00000-0  14448-4 0  9993,2 53030  53.2199  81.7087 0001412  67.5194 292.5948 15.08832985 21475,6917.901999999999,95.438,540.744,538.79,0.0
53030.0,STARLINK-4160,PAYLOAD,2022-11-23 14:16:40,15.08830432,0.0001421,53.2201,80.5192,66.9725,293.1417,-7.4503e-06,-4.06e-06,0.0,0 STARLINK-4160,1 53030U 22076AW  22327.59491709 -.00000406  00000-0 -74503-5 0  9994,2 53030  53.2201  80.5192 0001421  66.9725 293.1417 15.08830432 21985,6917.91,95.438,540.758,538.7919999999998,0.0
53030.0,STARLINK-4160,PAYLOAD,2022-11-23 19:02:50,15.08832433,0.0001411,53.22,79.6271,64.2117,295.9021,-2.9278000000000013e-05,-7.54e-06,0.0,0 STARLINK-4160,1 53030U 22076AW  22327.79363734 -.00000754  00000-0 -29278-4 0  9996,2 53030  53.2200  79.6271 0001411  64.2117 295.9021 15.08832433 21542,6917.904,95.438,540.745,538.7919999999998,0.0
53030.0,STARLINK-4160,PAYLOAD,2022-11-24 07:45:54,15.08848035,0.000139,53.2199,77.2487,58.8441,301.2687,-5.0868e-05,-1.098e-05,0.0,0 STARLINK-4160,1 53030U 22076AW  22328.32354872 -.00001098  00000-0 -50868-4 0  9990,2 53030  53.2199  77.2487 0001390  58.8441 301.2687 15.08848035 22092,6917.856,95.437,540.682,538.759,0.0
53030.0,STARLINK-4160,PAYLOAD,2022-11-24 10:56:41,15.0882136,0.0001182,53.2202,76.6538,63.3088,296.8025,0.00033251,5.005e-05,0.0,0 STARLINK-4160,1 53030U 22076AW  22328.45603286  .00005005  00000-0  33251-3 0  9996,2 53030  53.2202  76.6538 0001182  63.3088 296.8025 15.08821360 21641,6917.937,95.439,540.62,538.985,0.0
53030.0,STARLINK-4160,PAYLOAD,2022-11-24 12:32:04,15.08829145,0.0001166,53.2198,76.3577,53.6897,306.4203,0.00017934,2.567e-05,0.0,0 STARLINK-4160,1 53030U 22076AW  22328.52227300  .00002567  00000-0  17934-3 0  9993,2 53030  53.2198  76.3577 0001166  53.6897 306.4203 15.08829145 22126,6917.9140000000025,95.438,540.585,538.972,0.0
53030.0,STARLINK-4160,PAYLOAD,2022-11-24 18:53:37,15.08829819,0.0001519,53.2198,75.1697,51.2839,308.8289,2.2055e-05,6.3e-07,0.0,0 STARLINK-4160,1 53030U 22076AW  22328.78723879  .00000063  00000-0  22055-4 0  9993,2 53030  53.2198  75.1697 0001519  51.2839 308.8289 15.08829819 21697,6917.9119999999975,95.438,540.827,538.726,0.0
53030.0,STARLINK-4160,PAYLOAD,2022-11-25 12:22:51,15.08839454,0.0001579,53.2196,71.8982,49.3452,310.7677,9.0239e-05,1.148e-05,0.0,0 STARLINK-4160,1 53030U 22076AW  22329.51587270  .00001148  00000-0  90239-4 0  9992,2 53030  53.2196  71.8982 0001579  49.3452 310.7677 15.08839454 21802,6917.882,95.438,540.839,538.655,0.0
53030.0,STARLINK-4160,PAYLOAD,2022-11-25 13:58:14,15.08841329,0.0001569,53.2192,71.6015,49.2933,310.8195,0.00010891,1.446e-05,0.0,0 STARLINK-4160,1 53030U 22076AW  22329.58211084  .00001446  00000-0  10891-3 0  9992,2 53030  53.2192  71.6015 0001569  49.2933 310.8195 15.08841329 22288,6917.876,95.437,540.827,538.656,0.0
53030.0,STARLINK-4160,PAYLOAD,2022-11-25 18:44:24,15.08832658,0.0001826,53.2193,70.7107,42.9524,317.1611,3.6126e-05,2.87e-06,0.0,0 STARLINK-4160,1 53030U 22076AW  22329.78083962  .00000287  00000-0  36126-4 0  9998,2 53030  53.2193  70.7107 0001826  42.9524 317.1611 15.08832658 21842,6917.903,95.438,541.031,538.505,0.0
53030.0,STARLINK-4160,PAYLOAD,2022-11-26 07:27:29,15.08840809,0.0001593,53.2191,68.3315,45.694,314.4183,3.0669e-05,2e-06,0.0,0 STARLINK-4160,1 53030U 22076AW  22330.31075465  .00000200  00000-0  30669-4 0  9999,2 53030  53.2191  68.3315 0001593  45.6940 314.4183 15.08840809 22399,6917.878000000002,95.438,540.845,538.641,0.0
53030.0,STARLINK-4160,PAYLOAD,2022-11-26 10:38:15,15.08847398,0.0001549,53.2196,67.7349,54.1758,305.9378,3.296e-05,2.37e-06,0.0,0 STARLINK-4160,1 53030U 22076AW  22330.44323002  .00000237  00000-0  32960-4 0  9992,2 53030  53.2196  67.7349 0001549  54.1758 305.9378 15.08847398 21948,6917.858,95.437,540.794,538.651,0.0
53030.0,STARLINK-4160,PAYLOAD,2022-11-26 16:59:47,15.08848287,0.0001597,53.2194,66.5463,50.9841,309.1294,4.7941e-05,4.75e-06,0.0,0 STARLINK-4160,1 53030U 22076AW  22330.70818776  .00000475  00000-0  47941-4 0  9997,2 53030  53.2194  66.5463 0001597  50.9841 309.1294 15.08848287 22458,6917.855,95.437,540.825,538.615,0.0
53030.0,STARLINK-4160,PAYLOAD,2022-11-26 23:21:20,15.08839649,0.0001536,53.2192,65.357,53.4551,306.6583,5.7463e-05,6.27e-06,0.0,0 STARLINK-4160,1 53030U 22076AW  22330.97315188  .00000627  00000-0  57463-4 0  9994,2 53030  53.2192  65.3570 0001536  53.4551 306.6583 15.08839649 22490,6917.880999999999,95.438,540.809,538.684,0.0
53030.0,STARLINK-4160,PAYLOAD,2022-11-27 08:53:39,15.088393900000002,0.0001675,53.2206,63.5735,59.0579,301.0578,-5.1447e-05,-1.107e-05,0.0,0 STARLINK-4160,1 53030U 22076AW  22331.37059686 -.00001107  00000-0 -51447-4 0  9999,2 53030  53.2206  63.5735 0001675  59.0579 301.0578 15.08839390 22086,6917.882,95.438,540.906,538.589,0.0
53030.0,STARLINK-4160,PAYLOAD,2022-11-27 15:15:12,15.08835975,0.0001647,53.2204,62.3834,57.8323,302.2829,-7.7374e-05,-1.519e-05,0.0,0 STARLINK-4160,1 53030U 22076AW  22331.63555976 -.00001519  00000-0 -77374-4 0  9995,2 53030  53.2204  62.3834 0001647  57.8323 302.2829 15.08835975 22125,6917.893,95.438,540.8969999999998,538.618,0.0
